[Satellite]
VERSION=1.1
NAME=SL-3 R/B
NICKNAME=SL-3 R/B
TLE1=1 12904U 81103B   20158.14180432  .00000022  00000-0 -16361-6 0  9996
TLE2=2 12904  81.1757 115.9106 0029727  93.3441 267.1183 15.05796909656074
STATUS=0
